{
  "type": "FeatureCollection",
  "features": [
    {
      "type": "Feature",
      "properties": {
        "norad_id": 32316,
        "name": "FENGYUN 1C DEB",
        "group": "fengyun-1c-debris",
        "lat": -70.0346312715725,
        "lon": 34.77854604560869,
        "alt_km": 717.0398354400131,
        "timestamp": "2025-12-07T11:27:50.288605+00:00",
        "meta_object_name": "FENGYUN 1C DEB",
        "meta_object_id": "1999-025CXH",
        "meta_epoch": "2025-12-06T07:44:38.760576",
        "meta_mean_motion": 14.51729917,
        "meta_eccentricity": 0.00266017,
        "meta_inclination": 99.5287,
        "meta_ra_of_asc_node": 5.931,
        "meta_arg_of_pericenter": 348.8773,
        "meta_mean_anomaly": 26.1347,
        "meta_ephemeris_type": 0,
        "meta_classification_type": "U",
        "meta_norad_cat_id": 32316,
        "meta_element_set_no": 999,
        "meta_rev_at_epoch": 95684,
        "meta_bstar": 0.0030591685,
        "meta_mean_motion_dot": 0.0001231,
        "meta_mean_motion_ddot": 0,
        "tle_line1": "1 32316U 99025CXH 25340.32267084  .00012310  00000+0  30592-2 0  9993",
        "tle_line2": "2 32316  99.5287   5.9310 0026601 348.8773  26.1347 14.51729917956841"
      },
      "geometry": {
        "type": "Point",
        "coordinates": [
          34.77854604560869,
          -70.0346312715725
        ]
      }
    },
    {
      "type": "Feature",
      "properties": {
        "norad_id": 32320,
        "name": "FENGYUN 1C DEB",
        "group": "fengyun-1c-debris",
        "lat": 42.49133421738752,
        "lon": 27.159715063442636,
        "alt_km": 756.6451711746304,
        "timestamp": "2025-12-07T11:27:50.288615+00:00",
        "meta_object_name": "FENGYUN 1C DEB",
        "meta_object_id": "1999-025CXM",
        "meta_epoch": "2025-12-06T08:04:56.354304",
        "meta_mean_motion": 14.36096557,
        "meta_eccentricity": 0.00560395,
        "meta_inclination": 100.3737,
        "meta_ra_of_asc_node": 196.129,
        "meta_arg_of_pericenter": 65.6155,
        "meta_mean_anomaly": 295.0859,
        "meta_ephemeris_type": 0,
        "meta_classification_type": "U",
        "meta_norad_cat_id": 32320,
        "meta_element_set_no": 999,
        "meta_rev_at_epoch": 62081,
        "meta_bstar": 0.001523428,
        "meta_mean_motion_dot": 4.459e-05,
        "meta_mean_motion_ddot": 0,
        "tle_line1": "1 32320U 99025CXM 25340.33676336  .00004459  00000+0  15234-2 0  9994",
        "tle_line2": "2 32320 100.3737 196.1290 0056039  65.6155 295.0859 14.36096557620813"
      },
      "geometry": {
        "type": "Point",
        "coordinates": [
          27.159715063442636,
          42.49133421738752
        ]
      }
    },
    {
      "type": "Feature",
      "properties": {
        "norad_id": 32322,
        "name": "FENGYUN 1C DEB",
        "group": "fengyun-1c-debris",
        "lat": -8.714385597511301,
        "lon": -134.1815246540945,
        "alt_km": 1280.4540454413645,
        "timestamp": "2025-12-07T11:27:50.288625+00:00",
        "meta_object_name": "FENGYUN 1C DEB",
        "meta_object_id": "1999-025CXP",
        "meta_epoch": "2025-12-05T21:42:40.768992",
        "meta_mean_motion": 13.34117907,
        "meta_eccentricity": 0.04187438,
        "meta_inclination": 98.3703,
        "meta_ra_of_asc_node": 223.2343,
        "meta_arg_of_pericenter": 114.8979,
        "meta_mean_anomaly": 249.6277,
        "meta_ephemeris_type": 0,
        "meta_classification_type": "U",
        "meta_norad_cat_id": 32322,
        "meta_element_set_no": 999,
        "meta_rev_at_epoch": 60288,
        "meta_bstar": 0.0015292158,
        "meta_mean_motion_dot": 1.219e-05,
        "meta_mean_motion_ddot": 0,
        "tle_line1": "1 32322U 99025CXP 25339.90463853  .00001219  00000+0  15292-2 0  9990",
        "tle_line2": "2 32322  98.3703 223.2343 0418743 114.8979 249.6277 13.34117907602886"
      },
      "geometry": {
        "type": "Point",
        "coordinates": [
          -134.1815246540945,
          -8.714385597511301
        ]
      }
    },
    {
      "type": "Feature",
      "properties": {
        "norad_id": 32323,
        "name": "FENGYUN 1C DEB",
        "group": "fengyun-1c-debris",
        "lat": 80.74089463567257,
        "lon": 12.652472626818936,
        "alt_km": 972.7361706996189,
        "timestamp": "2025-12-07T11:27:50.288636+00:00",
        "meta_object_name": "FENGYUN 1C DEB",
        "meta_object_id": "1999-025CXQ",
        "meta_epoch": "2025-12-05T16:00:52.628256",
        "meta_mean_motion": 13.96423813,
        "meta_eccentricity": 0.01564823,
        "meta_inclination": 98.5677,
        "meta_ra_of_asc_node": 123.338,
        "meta_arg_of_pericenter": 229.7568,
        "meta_mean_anomaly": 128.9821,
        "meta_ephemeris_type": 0,
        "meta_classification_type": "U",
        "meta_norad_cat_id": 32323,
        "meta_element_set_no": 999,
        "meta_rev_at_epoch": 60171,
        "meta_bstar": 0.0059154955,
        "meta_mean_motion_dot": 9.02e-05,
        "meta_mean_motion_ddot": 0,
        "tle_line1": "1 32323U 99025CXQ 25339.66727579  .00009020  00000+0  59155-2 0  9996",
        "tle_line2": "2 32323  98.5677 123.3380 0156482 229.7568 128.9821 13.96423813601718"
      },
      "geometry": {
        "type": "Point",
        "coordinates": [
          12.652472626818936,
          80.74089463567257
        ]
      }
    },
    {
      "type": "Feature",
      "properties": {
        "norad_id": 32324,
        "name": "FENGYUN 1C DEB",
        "group": "fengyun-1c-debris",
        "lat": 34.67950333380449,
        "lon": 76.25168489836103,
        "alt_km": 823.7615945276493,
        "timestamp": "2025-12-07T11:27:50.288646+00:00",
        "meta_object_name": "FENGYUN 1C DEB",
        "meta_object_id": "1999-025CXR",
        "meta_epoch": "2025-12-06T13:08:44.151072",
        "meta_mean_motion": 14.0913114,
        "meta_eccentricity": 0.00500722,
        "meta_inclination": 99.5341,
        "meta_ra_of_asc_node": 81.946,
        "meta_arg_of_pericenter": 40.9873,
        "meta_mean_anomaly": 319.5041,
        "meta_ephemeris_type": 0,
        "meta_classification_type": "U",
        "meta_norad_cat_id": 32324,
        "meta_element_set_no": 999,
        "meta_rev_at_epoch": 63911,
        "meta_bstar": 0.00082409319,
        "meta_mean_motion_dot": 1.398e-05,
        "meta_mean_motion_ddot": 0,
        "tle_line1": "1 32324U 99025CXR 25340.54773323  .00001398  00000+0  82409-3 0  9993",
        "tle_line2": "2 32324  99.5341  81.9460 0050072  40.9873 319.5041 14.09131140639117"
      },
      "geometry": {
        "type": "Point",
        "coordinates": [
          76.25168489836103,
          34.67950333380449
        ]
      }
    },
    {
      "type": "Feature",
      "properties": {
        "norad_id": 32326,
        "name": "FENGYUN 1C DEB",
        "group": "fengyun-1c-debris",
        "lat": -39.897056114099726,
        "lon": -81.37060010460591,
        "alt_km": 1284.5681542764933,
        "timestamp": "2025-12-07T11:27:50.288656+00:00",
        "meta_object_name": "FENGYUN 1C DEB",
        "meta_object_id": "1999-025CXT",
        "meta_epoch": "2025-11-30T02:32:37.979232",
        "meta_mean_motion": 13.69261307,
        "meta_eccentricity": 0.03856265,
        "meta_inclination": 98.486,
        "meta_ra_of_asc_node": 264.9459,
        "meta_arg_of_pericenter": 173.0082,
        "meta_mean_anomaly": 187.6669,
        "meta_ephemeris_type": 0,
        "meta_classification_type": "U",
        "meta_norad_cat_id": 32326,
        "meta_element_set_no": 999,
        "meta_rev_at_epoch": 63009,
        "meta_bstar": 0.00044957354,
        "meta_mean_motion_dot": 6.22e-06,
        "meta_mean_motion_ddot": 0,
        "tle_line1": "1 32326U 99025CXT 25334.10599513  .00000622  00000+0  44957-3 0  9992",
        "tle_line2": "2 32326  98.4860 264.9459 0385626 173.0082 187.6669 13.69261307630092"
      },
      "geometry": {
        "type": "Point",
        "coordinates": [
          -81.37060010460591,
          -39.897056114099726
        ]
      }
    },
    {
      "type": "Feature",
      "properties": {
        "norad_id": 32331,
        "name": "FENGYUN 1C DEB",
        "group": "fengyun-1c-debris",
        "lat": -78.34903550661178,
        "lon": 0.059333644550362566,
        "alt_km": 669.4361032625202,
        "timestamp": "2025-12-07T11:27:50.288666+00:00",
        "meta_object_name": "FENGYUN 1C DEB",
        "meta_object_id": "1999-025CXY",
        "meta_epoch": "2025-11-11T08:35:02.141088",
        "meta_mean_motion": 14.68670701,
        "meta_eccentricity": 0.0013407,
        "meta_inclination": 99.1837,
        "meta_ra_of_asc_node": 279.0061,
        "meta_arg_of_pericenter": 226.0291,
        "meta_mean_anomaly": 133.9806,
        "meta_ephemeris_type": 0,
        "meta_classification_type": "U",
        "meta_norad_cat_id": 32331,
        "meta_element_set_no": 999,
        "meta_rev_at_epoch": 60157,
        "meta_bstar": 0.0092524,
        "meta_mean_motion_dot": 0.0005428,
        "meta_mean_motion_ddot": 0,
        "tle_line1": "1 32331U 99025CXY 25315.35766367  .00054280  00000+0  92524-2 0  9998",
        "tle_line2": "2 32331  99.1837 279.0061 0013407 226.0291 133.9806 14.68670701601572"
      },
      "geometry": {
        "type": "Point",
        "coordinates": [
          0.059333644550362566,
          -78.34903550661178
        ]
      }
    }
  ]
}